BEIDOU 3 (C01)          
1 36287U 10001A   22087.80585126 -.00000302  00000+0  00000+0 0  9996
2 36287   1.9421  48.7189 0003365  14.1795 193.7916  1.00269045 44704
BEIDOU 5 (C06)          
1 36828U 10036A   22087.52046786 -.00000172  00000+0  00000+0 0  9993
2 36828  54.1908 176.9708 0027685 184.7790 120.1280  1.00269724 42762
BEIDOU 6 (C04)          
1 37210U 10057A   22087.24961241 -.00000133  00000+0  00000+0 0  9990
2 37210   1.0246  55.6366 0003361 144.2966 235.5557  1.00270866 41821
BEIDOU 7 (C07)          
1 37256U 10068A   22087.49841208 -.00000177  00000+0  00000+0 0  9997
2 37256  50.3552 290.6124 0018205 182.5811   0.8397  1.00275473 41338
BEIDOU 8 (C08)          
1 37384U 11013A   22088.26470501 -.00000174  00000+0  00000+0 0  9997
2 37384  60.1834  55.0641 0018330 193.7972 141.8866  1.00273857 40217
BEIDOU 9 (C09)          
1 37763U 11038A   22087.11910833 -.00000107  00000+0  00000+0 0  9991
2 37763  54.4752 179.4564 0091188 226.3226 274.0362  1.00252713 39187
BEIDOU 10 (C10)         
1 37948U 11073A   22087.58149714 -.00000129  00000+0  00000+0 0  9992
2 37948  50.4701 290.2435 0077061 217.7517 343.1556  1.00271213 37943
BEIDOU 11 (C05)         
1 38091U 12008A   22087.78958846  .00000037  00000+0  00000+0 0  9994
2 38091   1.3873  65.2317 0014942 322.5744 141.3540  1.00267486 37020
BEIDOU 12 (C11)         
1 38250U 12018A   22088.06405012 -.00000108  00000+0  00000+0 0  9996
2 38250  56.7145 356.2146 0021677 257.7198  55.3145  1.86234129 67582
BEIDOU 13 (C12)         
1 38251U 12018B   22088.03816935 -.00000108  00000+0  00000+0 0  9994
2 38251  56.6327 355.5459 0013215 265.0148  74.9299  1.86234300 67587
BEIDOU 15 (C14)         
1 38775U 12050B   22087.78060500  .00000048  00000+0  00000+0 0  9993
2 38775  55.3524 114.3995 0014816 318.0666  45.7838  1.86231357 64964
BEIDOU 16 (C02)         
1 38953U 12059A   22088.08166356 -.00000196  00000+0  00000+0 0  9995
2 38953   1.7905  84.5240 0013187 291.6675 283.7407  1.00270967 34595
BEIDOU 17 (C31)         
1 40549U 15019A   22086.06854780 -.00000151  00000+0  00000+0 0  9990
2 40549  52.0258 313.7116 0035402 188.6161 161.0759  1.00260116 25602
BEIDOU 18 (C57)         
1 40748U 15037A   22087.45339389 -.00000107  00000+0  00000+0 0  9999
2 40748  55.8879 354.4814 0005632   9.2420 208.1767  1.86233327 45408
BEIDOU 19 (C58)         
1 40749U 15037B   22088.18304605 -.00000108  00000+0  00000+0 0  9995
2 40749  55.8912 354.4464 0006643 334.2614 147.2136  1.86232253 45418
BEIDOU 20 (C18)         
1 40938U 15053A   22087.44485615 -.00000107  00000+0  00000+0 0  9991
2 40938  51.6263 276.7975 0044078 192.6860 331.9725  1.00264306 23891
BEIDOU IGSO-6 (C13)     
1 41434U 16021A   22087.63413041 -.00000131  00000+0  00000+0 0  9991
2 41434  57.9821  53.6655 0043400 220.1169 233.3796  1.00258426 22029
BEIDOU-2 G7 (C03)       
1 41586U 16037A   22087.87781851 -.00000375  00000+0  00000+0 0  9999
2 41586   1.7994  68.5182 0009205 359.5685 184.7392  1.00271591 21332
BEIDOU-3 M1 (C19)       
1 43001U 17069A   22087.54563177  .00000048  00000+0  00000+0 0  9998
2 43001  55.5055 114.3971 0011704 287.5675  74.9449  1.86231701 29898
BEIDOU-3 M2 (C20)       
1 43002U 17069B   22088.16848388  .00000050  00000+0  00000+0 0  9991
2 43002  55.5059 114.4117 0009643 305.5047 157.7338  1.86231471 29890
BEIDOU-3 M3 (C27)       
1 43107U 18003A   22087.67313802 -.00000109  00000+0  00000+0 0  9995
2 43107  55.3372 355.4268 0005320  41.2720 255.8951  1.86232534 28640
BEIDOU-3 M4 (C28)       
1 43108U 18003B   22088.14807824 -.00000109  00000+0  00000+0 0  9991
2 43108  55.3298 355.3995 0002899 278.3361  21.5923  1.86230923 28654
BEIDOU-3 M5 (C21)       
1 43207U 18018A   22087.60966541  .00000048  00000+0  00000+0 0  9990
2 43207  55.4649 114.5113 0007076 320.8426  39.1743  1.86231384 28038
BEIDOU-3 M6 (C22)       
1 43208U 18018B   22087.13933908  .00000045  00000+0  00000+0 0  9997
2 43208  55.4640 114.5322 0009857 296.6390  63.3242  1.86231688 28020
BEIDOU-3 M7 (C29)       
1 43245U 18029A   22088.15774863 -.00000107  00000+0  00000+0 0  9996
2 43245  55.2545 353.1838 0001429 353.8092 178.6316  1.86232583 27192
BEIDOU-3 M8 (C30)       
1 43246U 18029B   22088.06654528 -.00000107  00000+0  10000-3 0  9997
2 43246  55.2516 353.2171 0005391 357.2256 160.5342  1.86232783 27184
BEIDOU IGSO-7 (C16)     
1 43539U 18057A   22087.76757837 -.00000172  00000+0  00000+0 0  9993
2 43539  55.0732 176.4199 0046572 224.4720 172.7978  1.00282697 13707
BEIDOU-3 M9 (C23)       
1 43581U 18062A   22087.50882809 -.00000020  00000+0  00000+0 0  9998
2 43581  54.3024 234.8546 0001818 310.4222  44.2059  1.86231887 24919
BEIDOU-3 M10 (C24)      
1 43582U 18062B   22088.04068787 -.00000027  00000+0  00000+0 0  9997
2 43582  54.3029 234.8258 0005810  21.7274  61.1963  1.86231838 24930
BEIDOU-3 M11 (C25)      
1 43602U 18067A   22088.13792852 -.00000029  00000+0  00000+0 0  9994
2 43602  54.3829 233.4296 0007408  15.0263 174.6428  1.86231693 24426
BEIDOU-3 M12 (C26)      
1 43603U 18067B   22087.42740546 -.00000020  00000+0  00000+0 0  9990
2 43603  54.3803 233.4214 0004477   9.7640 333.9223  1.86231643 24429
BEIDOU-3 M13 (C32)      
1 43622U 18072A   22088.09858384  .00000050  00000+0  00000+0 0  9993
2 43622  55.4314 114.0532 0008538 283.3781 179.8178  1.86231575 23951
BEIDOU-3 M14 (C33)      
1 43623U 18072B   22087.30998541  .00000046  00000+0  00000+0 0  9992
2 43623  55.4326 114.0712 0006550 302.2154  82.4916  1.86231396 23941
BEIDOU-3 M15 (C34)      
1 43647U 18078A   22087.33351109 -.00000106  00000+0  10000-3 0  9993
2 43647  55.1487 353.3776 0007796   3.9504 291.9816  1.86232461 23442
BEIDOU-3 M16 (C35)      
1 43648U 18078B   22088.11095400 -.00000107  00000+0  00000+0 0  9996
2 43648  55.1451 353.3583 0005708   9.1022 356.0188  1.86232242 23480
BEIDOU-3 G1 (C59)       
1 43683U 18085A   22087.80576405 -.00000300  00000+0  00000+0 0  9992
2 43683   0.8410 180.3948 0002680 320.4455 115.4751  1.00270183 12606
BEIDOU-3 M17 (C36)      
1 43706U 18093A   22087.71817007 -.00000023  00000+0  00000+0 0  9995
2 43706  54.3841 234.7265 0007612 277.8776  81.9838  1.86231744 22812
BEIDOU-3 M18 (C37)      
1 43707U 18093B   22087.57784328 -.00000021  00000+0  00000+0 0  9997
2 43707  54.3848 234.7223 0006656 313.5424  43.3814  1.86232130 22815
BEIDOU-3 IGSO-1 (C38)   
1 44204U 19023A   22087.80157758 -.00000205  00000+0  00000+0 0  9995
2 44204  56.4447  53.8359 0020182 206.0353 333.9934  1.00281960 10902
BEIDOU-2 G8             
1 44231U 19027A   22087.80663623 -.00000270  00000+0  00000+0 0  9994
2 44231   0.6718  71.7213 0004359 134.9509  54.3322  1.00267264 10616
BEIDOU-3 IGSO-2 (C39)   
1 44337U 19035A   22087.74421918 -.00000174  00000+0  00000+0 0  9995
2 44337  55.1126 172.4429 0022903 192.8737 207.8569  1.00277831 10248
BEIDOU-3 M23 (C45)      
1 44542U 19061A   22087.65369989 -.00000021  00000+0  00000+0 0  9992
2 44542  54.6103 234.8549 0007702 349.6943  10.2380  1.86231125 17088
BEIDOU-3 M24 (C46)      
1 44543U 19061B   22087.72711563 -.00000022  00000+0  00000+0 0  9991
2 44543  54.6086 234.8220 0004940 349.8132 330.5414  1.86231689 17078
BEIDOU-3 IGSO-3         
1 44709U 19073A   22086.48365333 -.00000149  00000+0  00000+0 0  9990
2 44709  57.3961 297.2307 0020495 172.3696   8.8115  1.00281156  8983
BEIDOU-3 M21            
1 44793U 19078A   22087.63167863 -.00000107  00000+0  10000-3 0  9993
2 44793  54.9975 353.3997 0007563   6.1910  83.6788  1.86232207 15945
BEIDOU-3 M22            
1 44794U 19078B   22087.23611914 -.00000107  00000+0  00000+0 0  9996
2 44794  54.9726 353.4057 0005458   1.1572  95.0217  1.86232727 15938
BEIDOU-3 M19            
1 44864U 19090A   22087.43918144  .00000047  00000+0  00000+0 0  9997
2 44864  55.3660 114.2908 0018513 269.4533 157.3755  1.86231878 15528
BEIDOU-3 M20            
1 44865U 19090B   22087.34732178  .00000046  00000+0  00000+0 0  9998
2 44865  55.3681 114.3252 0016863 282.4578 172.6653  1.86231846 15493
BEIDOU-3 G2             
1 45344U 20017A   22087.81715948 -.00000163  00000+0  00000+0 0  9991
2 45344   2.1261 348.1439 0003170  81.5238 130.7139  1.00272493  7801
BEIDOU-3 G3             
1 45807U 20040A   22088.01520334 -.00000378  00000+0  00000+0 0  9995
2 45807   1.6263 301.3178 0007454 346.1958  14.9086  1.00271734  6631
